NORAD_CAT_ID,OBJECT_NAME,OBJECT_TYPE,EPOCH,MEAN_MOTION,ECCENTRICITY,INCLINATION,RA_OF_ASC_NODE,ARG_OF_PERICENTER,MEAN_ANOMALY,BSTAR,MEAN_MOTION_DOT,MEAN_MOTION_DDOT,TLE_LINE0,TLE_LINE1,TLE_LINE2,SEMIMAJOR_AXIS,PERIOD,APOGEE,PERIGEE,DECAYED
52702.0,STARLINK-4033,PAYLOAD,2022-11-10 20:52:43,15.08830669,0.0001922,53.2166,202.6608,32.948,327.1632,5.3924e-06,-2.02e-06,0.0,0 STARLINK-4033,1 52702U 22053AY  22314.86994569 -.00000202  00000-0  53924-5 0  9999,2 52702  53.2166 202.6608 0001922  32.9480 327.1632 15.08830669 27699,6917.909000000002,95.438,541.104,538.444,0.0
52702.0,STARLINK-4033,PAYLOAD,2022-11-11 09:35:48,15.08828609,0.0001653,53.2164,200.2825,39.5251,320.5861,4.0232e-05,3.52e-06,0.0,0 STARLINK-4033,1 52702U 22053AY  22315.39987130  .00000352  00000-0  40232-4 0  9996,2 52702  53.2164 200.2825 0001653  39.5251 320.5861 15.08828609 27773,6917.915,95.438,540.924,538.637,0.0
52702.0,STARLINK-4033,PAYLOAD,2022-11-11 17:32:44,15.08832396,0.0001836,53.2169,198.7965,38.7,321.4124,0.00030041,4.495e-05,0.0,0 STARLINK-4033,1 52702U 22053AY  22315.73107409  .00004495  00000-0  30041-3 0  9995,2 52702  53.2169 198.7965 0001836  38.7000 321.4124 15.08832396 27411,6917.904,95.438,541.039,538.499,0.0
52702.0,STARLINK-4033,PAYLOAD,2022-11-11 20:43:30,15.08839444,0.0001864,53.2167,198.2018,39.2927,320.82,0.00040419,6.15e-05,0.0,0 STARLINK-4033,1 52702U 22053AY  22315.86355246  .00006150  00000-0  40419-3 0  9993,2 52702  53.2167 198.2018 0001864  39.2927 320.8200 15.08839444 27844,6917.882,95.438,541.0369999999998,538.4580000000002,0.0
52702.0,STARLINK-4033,PAYLOAD,2022-11-12 09:26:36,15.08838299,0.0001975,53.2161,195.8228,45.8853,314.2302,0.00031576,4.741e-05,0.0,0 STARLINK-4033,1 52702U 22053AY  22316.39347709  .00004741  00000-0  31576-3 0  9995,2 52702  53.2161 195.8228 0001975  45.8853 314.2302 15.08838299 27924,6917.886,95.438,541.117,538.384,0.0
52702.0,STARLINK-4033,PAYLOAD,2022-11-12 20:34:18,15.08849231,0.0001883,53.2157,193.7408,44.3909,315.7234,0.0004628,7.087e-05,0.0,0 STARLINK-4033,1 52702U 22053AY  22316.85715344  .00007087  00000-0  46280-3 0  9994,2 52702  53.2157 193.7408 0001883  44.3909 315.7234 15.08849231 27995,6917.852,95.437,541.02,538.415,0.0
52702.0,STARLINK-4033,PAYLOAD,2022-11-13 01:20:27,15.08852887,0.0002246,53.2155,192.85,46.6307,313.4872,0.00051337,7.895e-05,0.0,0 STARLINK-4033,1 52702U 22053AY  22317.05587330  .00007895  00000-0  51337-3 0  9995,2 52702  53.2155 192.8500 0002246  46.6307 313.4872 15.08852887 27610,6917.840999999999,95.437,541.26,538.1519999999998,0.0
52702.0,STARLINK-4033,PAYLOAD,2022-11-13 15:38:56,15.08840714,0.0002138,53.2159,190.1733,46.9204,313.1967,0.00018492,2.656e-05,0.0,0 STARLINK-4033,1 52702U 22053AY  22317.65203789  .00002656  00000-0  18492-3 0  9999,2 52702  53.2159 190.1733 0002138  46.9204 313.1967 15.08840714 27700,6917.878000000002,95.438,541.222,538.264,0.0
52702.0,STARLINK-4033,PAYLOAD,2022-11-14 09:08:11,15.08823399,0.000206,53.216,186.9027,43.3081,316.8072,3.5185e-05,2.72e-06,0.0,0 STARLINK-4033,1 52702U 22053AY  22318.38069041  .00000272  00000-0  35185-4 0  9992,2 52702  53.2160 186.9027 0002060  43.3081 316.8072 15.08823399 28224,6917.931,95.439,541.221,538.371,0.0
52702.0,STARLINK-4033,PAYLOAD,2022-11-14 15:29:44,15.08824402,0.0002046,53.2169,185.7136,41.0865,319.0281,0.00017054,2.426e-05,0.0,0 STARLINK-4033,1 52702U 22053AY  22318.64565361  .00002426  00000-0  17054-3 0  9994,2 52702  53.2169 185.7136 0002046  41.0865 319.0281 15.08824402 28267,6917.928000000001,95.439,541.2080000000002,538.378,0.0
52702.0,STARLINK-4033,PAYLOAD,2022-11-14 21:51:17,15.08830105,0.0002006,53.2169,184.5218,48.0177,312.0986,0.00017061,2.427e-05,0.0,0 STARLINK-4033,1 52702U 22053AY  22318.91061356  .00002427  00000-0  17061-3 0  9998,2 52702  53.2169 184.5218 0002006  48.0177 312.0986 15.08830105 28301,6917.911,95.438,541.163,538.388,0.0
52702.0,STARLINK-4033,PAYLOAD,2022-11-15 18:31:17,15.08842209,0.0002065,53.217,180.6581,44.3962,315.7195,0.00046957,7.193e-05,0.0,0 STARLINK-4033,1 52702U 22053AY  22319.77173494  .00007193  00000-0  46957-3 0  9991,2 52702  53.2170 180.6581 0002065  44.3962 315.7195 15.08842209 28028,6917.874,95.437,541.1669999999998,538.31,0.0
52702.0,STARLINK-4033,PAYLOAD,2022-11-15 20:06:40,15.08844079,0.0002074,53.2169,180.3608,44.5261,315.5897,0.00047957,7.353e-05,0.0,0 STARLINK-4033,1 52702U 22053AY  22319.83797405  .00007353  00000-0  47957-3 0  9991,2 52702  53.2169 180.3608 0002074  44.5261 315.5897 15.08844079 28447,6917.868,95.437,541.168,538.298,0.0
52702.0,STARLINK-4033,PAYLOAD,2022-11-16 07:14:22,15.08859996,0.0002107,53.2171,178.2793,45.3177,314.7986,0.00054659,8.426e-05,0.0,0 STARLINK-4033,1 52702U 22053AY  22320.30164810  .00008426  00000-0  54659-3 0  9992,2 52702  53.2171 178.2793 0002107  45.3177 314.7986 15.08859996 28100,6917.819,95.436,541.1419999999998,538.227,0.0
52702.0,STARLINK-4033,PAYLOAD,2022-11-16 18:22:04,15.08847703,0.0002006,53.2168,176.1971,47.7408,312.3754,0.00021528,3.14e-05,0.0,0 STARLINK-4033,1 52702U 22053AY  22320.76533139  .00003140  00000-0  21528-3 0  9993,2 52702  53.2168 176.1971 0002006  47.7408 312.3754 15.08847703 28179,6917.857,95.437,541.11,538.3340000000002,0.0
52702.0,STARLINK-4033,PAYLOAD,2022-11-16 21:32:50,15.08848818,0.0002058,53.2168,175.6029,46.0108,314.1054,0.000244,3.598e-05,0.0,0 STARLINK-4033,1 52702U 22053AY  22320.89781091  .00003598  00000-0  24400-3 0  9998,2 52702  53.2168 175.6029 0002058  46.0108 314.1054 15.08848818 28602,6917.853,95.437,541.1419999999998,538.295,0.0
52702.0,STARLINK-4033,PAYLOAD,2022-11-17 13:26:41,15.08852514,0.0002095,53.2166,172.6296,45.6355,314.4809,0.00032335,4.863e-05,0.0,0 STARLINK-4033,1 52702U 22053AY  22321.56020727  .00004863  00000-0  32335-3 0  9997,2 52702  53.2166 172.6296 0002095  45.6355 314.4809 15.08852514 28703,6917.842,95.437,541.156,538.258,0.0
52702.0,STARLINK-4033,PAYLOAD,2022-11-18 00:34:24,15.08837018,0.0002054,53.2166,170.5478,44.9902,315.1256,-9.0148e-05,-1.723e-05,0.0,0 STARLINK-4033,1 52702U 22053AY  22322.02389069 -.00001723  00000-0 -90148-4 0  9997,2 52702  53.2166 170.5478 0002054  44.9902 315.1256 15.08837018 28365,6917.89,95.438,541.175,538.3340000000002,0.0
52702.0,STARLINK-4033,PAYLOAD,2022-11-18 13:17:29,15.08838009,0.0002132,53.2167,168.1689,44.4524,315.6639,-2.0097e-05,-6.08e-06,0.0,0 STARLINK-4033,1 52702U 22053AY  22322.55381234 -.00000608  00000-0 -20097-4 0  9998,2 52702  53.2167 168.1689 0002132  44.4524 315.6639 15.08838009 28850,6917.886,95.438,541.226,538.2769999999998,0.0
52702.0,STARLINK-4033,PAYLOAD,2022-11-19 06:46:43,15.08843246,0.0002058,53.2166,164.8981,44.9607,315.1552,0.00011315,1.513e-05,0.0,0 STARLINK-4033,1 52702U 22053AY  22323.28245182  .00001513  00000-0  11315-3 0  9996,2 52702  53.2166 164.8981 0002058  44.9607 315.1552 15.08843246 28556,6917.87,95.437,541.159,538.312,0.0
52702.0,STARLINK-4033,PAYLOAD,2022-11-19 19:29:48,15.08844217,0.0002051,53.2166,162.5191,45.7004,314.4156,0.00010734,1.421e-05,0.0,0 STARLINK-4033,1 52702U 22053AY  22323.81237017  .00001421  00000-0  10734-3 0  9995,2 52702  53.2166 162.5191 0002051  45.7004 314.4156 15.08844217 29043,6917.8669999999975,95.437,541.151,538.314,0.0
52702.0,STARLINK-4033,PAYLOAD,2022-11-20 12:59:03,15.08850021,0.0002154,53.2166,159.2484,47.9777,312.1398,0.00024478,3.611e-05,0.0,0 STARLINK-4033,1 52702U 22053AY  22324.54100709  .00003611  00000-0  24478-3 0  9996,2 52702  53.2166 159.2484 0002154  47.9777 312.1398 15.08850021 29151,6917.85,95.437,541.205,538.225,0.0
52702.0,STARLINK-4033,PAYLOAD,2022-11-20 17:45:12,15.08853681,0.0002159,53.2166,158.3563,48.4253,311.6924,0.00025482,3.771e-05,0.0,0 STARLINK-4033,1 52702U 22053AY  22324.73972438  .00003771  00000-0  25482-3 0  9996,2 52702  53.2166 158.3563 0002159  48.4253 311.6924 15.08853681 28770,6917.839,95.437,541.197,538.21,0.0
52702.0,STARLINK-4033,PAYLOAD,2022-11-20 19:20:35,15.08851981,0.0002146,53.2173,158.0594,47.7599,312.3575,0.00021987,3.214e-05,0.0,0 STARLINK-4033,1 52702U 22053AY  22324.80596449  .00003214  00000-0  21987-3 0  9996,2 52702  53.2173 158.0594 0002146  47.7599 312.3575 15.08851981 29198,6917.844,95.437,541.193,538.224,0.0
52702.0,STARLINK-4033,PAYLOAD,2022-11-20 22:31:21,15.08845396,0.0002692,53.2162,157.4689,36.8471,323.2705,9.6095e-05,1.241e-05,0.0,0 STARLINK-4033,1 52702U 22053AY  22324.93844794  .00001241  00000-0  96095-4 0  9990,2 52702  53.2162 157.4689 0002692  36.8471 323.2705 15.08845396 28804,6917.864000000001,95.437,541.591,537.867,0.0
52702.0,STARLINK-4033,PAYLOAD,2022-11-21 12:49:50,15.08841309,0.0002161,53.216,154.7877,48.4336,311.6841,4.4508e-05,4.2e-06,0.0,0 STARLINK-4033,1 52702U 22053AY  22325.53461026  .00000420  00000-0  44508-4 0  9990,2 52702  53.2160 154.7877 0002161  48.4336 311.6841 15.08841309 29309,6917.876,95.437,541.236,538.246,0.0
52702.0,STARLINK-4033,PAYLOAD,2022-11-21 19:11:22,15.08841323,0.0002458,53.2158,153.601,42.8307,317.2876,2.4671e-05,1.04e-06,0.0,0 STARLINK-4033,1 52702U 22053AY  22325.79957089  .00000104  00000-0  24671-4 0  9995,2 52702  53.2158 153.6010 0002458  42.8307 317.2876 15.08841323 29348,6917.876,95.437,541.442,538.0409999999998,0.0
52702.0,STARLINK-4033,PAYLOAD,2022-11-21 22:22:09,15.08843142,0.0002211,53.2161,153.0038,48.4235,311.6947,6.1383e-05,6.89e-06,0.0,0 STARLINK-4033,1 52702U 22053AY  22325.93204922  .00000689  00000-0  61383-4 0  9991,2 52702  53.2161 153.0038 0002211  48.4235 311.6947 15.08843142 28959,6917.871,95.437,541.265,538.206,0.0
52702.0,STARLINK-4033,PAYLOAD,2022-11-22 12:40:37,15.08844394,0.0002217,53.216,150.3274,49.1438,310.9746,7.6198e-05,9.25e-06,0.0,0 STARLINK-4033,1 52702U 22053AY  22326.52820789  .00000925  00000-0  76198-4 0  9995,2 52702  53.2160 150.3274 0002217  49.1438 310.9746 15.08844394 29454,6917.8669999999975,95.437,541.266,538.198,0.0
